[{"OBJECT_NAME":"STARLINK-1559","OBJECT_ID":"2020-055BC","EPOCH":"2026-03-09T05:36:23.522976","MEAN_MOTION":15.29461733,"ECCENTRICITY":0.0004229,"INCLINATION":53.0254,"RA_OF_ASC_NODE":76.0659,"ARG_OF_PERICENTER":33.971,"MEAN_ANOMALY":326.1559,"EPHEMERIS_TYPE":0,"CLASSIFICATION_TYPE":"U","NORAD_CAT_ID":46077,"ELEMENT_SET_NO":999,"REV_AT_EPOCH":30951,"BSTAR":0.0014778793,"MEAN_MOTION_DOT":0.00042685,"MEAN_MOTION_DDOT":0},{"OBJECT_NAME":"STARLINK-33713","OBJECT_ID":"2025-070V","EPOCH":"2026-03-09T12:34:16.421952","MEAN_MOTION":15.27596738,"ECCENTRICITY":5.821e-5,"INCLINATION":42.9982,"RA_OF_ASC_NODE":257.0273,"ARG_OF_PERICENTER":282.1548,"MEAN_ANOMALY":77.9238,"EPHEMERIS_TYPE":0,"CLASSIFICATION_TYPE":"U","NORAD_CAT_ID":63479,"ELEMENT_SET_NO":999,"REV_AT_EPOCH":5299,"BSTAR":0.00086628638,"MEAN_MOTION_DOT":0.00023665,"MEAN_MOTION_DDOT":0}]
