STARLINK-1559           
1 46077U 20055BC  26068.23360559  .00042685  00000+0  14779-2 0  9995
2 46077  53.0254  76.0659 0004229  33.9710 326.1559 15.29461733309518
STARLINK-33713          
1 63479U 25070V   26068.52380118  .00023665  00000+0  86629-3 0  9998
2 63479  42.9982 257.0273 0000582 282.1548  77.9238 15.27596738 52990
